SL-8 R/B                
1 11574U 79089B   26069.50846008  .00000343  00000+0  11157-3 0  9992
2 11574  74.0667  89.5278 0017162 262.1209  97.7999 14.42351404436223
SL-14 R/B               
1 11672U 80005B   26069.73437571  .00000654  00000+0  63589-4 0  9999
2 11672  82.5142 306.2455 0016272 154.9385 205.2628 14.90931778476640
SL-8 R/B                
1 12139U 81003B   26069.59679006  .00021860  00000+0  55974-3 0  9992
2 12139  82.9387 289.1850 0262165 175.4930 184.8760 15.11013948314813
SL-3 R/B                
1 12465U 81046B   26069.82271732  .00014970  00000+0  34764-3 0  9999
2 12465  81.2299 288.3835 0019439  18.4665 341.7278 15.42029677438600
SL-3 R/B                
1 12904U 81103B   26069.82461455  .00006375  00000+0  28261-3 0  9999
2 12904  81.1585 212.1006 0012351 282.7697  77.2154 15.21391815973406
SL-3 R/B                
1 13068U 82013B   26069.83221027  .00004897  00000+0  21172-3 0  9993
2 13068  81.1761 159.4319 0022680 173.7105 186.4416 15.22031571404520
SL-3 R/B                
1 13154U 82039B   26069.84952222  .00003237  00000+0  19542-3 0  9991
2 13154  81.1582 214.6246 0029674 320.6886  39.2184 15.10089653381813
SL-3 R/B                
1 13403U 82079B   26069.78246891  .00007689  00000+0  30604-3 0  9990
2 13403  81.1479 191.7869 0025066 161.1783 199.0384 15.24819536377869
SL-14 R/B               
1 13553U 82092B   26069.73180531  .00000542  00000+0  58168-4 0  9991
2 13553  82.5693 140.4249 0018960 299.8259 182.1188 14.86667452329084
SL-3 R/B                
1 13819U 83010B   26069.27864833  .00019966  00000+0  40051-3 0  9991
2 13819  81.1059   1.5253 0017941  49.1452 311.1344 15.46381546358030
SL-3 R/B                
1 14208U 83075B   26069.79283866  .00013236  00000+0  34870-3 0  9999
2 14208  97.6148  74.4118 0020222 221.6818 138.2886 15.38448883330322
COSMOS 1536             
1 14699U 84013A   26069.57357852  .00007233  00000+0  29820-3 0  9998
2 14699  82.5430 106.9720 0012474 279.7072  80.2756 15.23837563272754
SL-14 R/B               
1 14820U 84027B   26069.83788042  .00000620  00000+0  68126-4 0  9993
2 14820  82.5389 243.9355 0017258 333.8906  26.1438 14.85977795247805
SL-8 R/B                
1 15483U 85006B   26069.84857308  .00000371  00000+0  13177-3 0  9998
2 15483  74.0433 259.0158 0018401 176.5904 284.6449 14.37783860154194
SL-12 R/B(2)            
1 15772U 85042D   26069.77110498  .00000079  00000+0  56979-4 0  9996
2 15772  71.1063  85.4437 0033187 126.3623  46.0282 14.21982645114547
SL-14 R/B               
1 15945U 85069B   26069.82231656  .00000705  00000+0  76865-4 0  9995
2 15945  82.5287  23.8679 0018574 183.9136 176.1939 14.86434746173003
SL-16 R/B               
1 16182U 85097B   26069.63996721 -.00000190  00000+0 -71045-4 0  9995
2 16182  71.0026 138.5540 0009903 258.7161 253.3828 14.16598587 87362
